KUIPER-00008            
1 63724U 25088A   25294.46851527  .00010095  00000+0  83111-3 0  9996
2 63724  51.8920   1.7433 0011369 355.4587   4.6279 14.99576518 27174
KUIPER-00009            
1 63725U 25088B   25294.46794504  .00002628  00000+0  37220-3 0  9991
2 63725  51.9028   2.2375 0012667   1.2386 358.8606 14.80094847 27168
KUIPER-00010            
1 63726U 25088C   25294.58336806  .00035047  00000+0  39454-2 0  9993
2 63726  51.8964 338.3157 0012459  43.3598 177.5032 14.86278397  5861
KUIPER-00011            
1 63727U 25088D   25294.41925900  .00000933  00000+0  15159-3 0  9998
2 63727  51.9022 346.5164 0013543  18.8629 341.2833 14.79932202 27131
KUIPER-00012            
1 63728U 25088E   25294.63074696 -.00100600  00000+0 -45159-2 0  9996
2 63728  51.8688 335.1255 0011017  12.8116 347.3142 15.20992499 27268
KUIPER-00013            
1 63729U 25088F   25294.46806930  .00010078  00000+0  13483-2 0  9994
2 63729  51.9031   3.7162 0007552 289.2991  70.7154 14.79942378 26956
KUIPER-00014            
1 63730U 25088G   25294.46616972  .00004512  00000+0  62006-3 0  9993
2 63730  51.9036   4.6900 0008245 355.4248   4.6637 14.79956958 26753
KUIPER-00015            
1 63731U 25088H   25294.50171648  .00004361  00000+0  57939-3 0  9996
2 63731  51.9007  16.1852 0009787 339.7845  20.2729 14.81461270 27057
